STARLINK-1073
1 14914C 20001A   21326.15381854  .00006838  00000-0  45812-3 0  3266
2 14914  53.0513 188.0575 0002173  76.7184 145.1890 15.06390466    10
